TIANMU-1 08             
1 57400U 23101B   26066.00237819  .00000346  00000+0  14775-4 0  9993
2 57400  97.2717 118.7901 0006380 134.2174 225.9592 15.29204229146020
STARLINK-31741          
1 59550U 24074S   26068.13852445  .00003205  00000+0  12593-3 0  9997
2 59550  43.0023 346.3262 0001714 275.1195  84.9461 15.27586163105931
